COSMOS 2507 (RODNIK-S *)
1 40920U 15050A   26198.57862023  .00000218  00000+0  15024-2 0  9999
2 40920  82.4901  60.7452 0008975 287.4844  72.5254 12.42928355490639
COSMOS 2508 (RODNIK-S *)
1 40921U 15050B   26198.61442080  .00000121  00000+0  80089-3 0  9999
2 40921  82.4853  59.2162 0013840 321.3972  38.6118 12.42915677490628
COSMOS 2509 (RODNIK-S *)
1 40922U 15050C   26198.55500823  .00000142  00000+0  95614-3 0  9996
2 40922  82.4862  59.3587 0014500 338.9934  21.0548 12.42885211490653
LINGQIAO VIDEO A        
1 40959U 15057B   26198.63572690  .00000303  00000+0  49307-4 0  9991
2 40959  97.6632 191.9385 0016873 165.0902 195.0810 14.77428341579901
LINGQIAO VIDEO B        
1 40960U 15057C   26198.61021896  .00000246  00000+0  41173-4 0  9997
2 40960  97.6596 193.0696 0017064 165.3021 194.8690 14.77533030579947
JILIN-1                 
1 40961U 15057D   26198.61008112  .00000345  00000+0  54218-4 0  9998
2 40961  97.6521 196.4686 0017437 159.2274 200.9650 14.78203302580100
FOX-1A (AO-85)          
1 40967U 15058D   26198.40070854  .00001604  00000+0  15191-3 0  9999
2 40967  64.7725 185.0785 0132537  44.9727 316.2027 14.91095970118070
SINOD-D 1               
1 40968U 15058E   26198.36096900  .00002718  00000+0  22190-3 0  9999
2 40968  64.7739 164.4048 0121239  41.3410 319.6802 14.96100252121174
ELEKTRO-L 2             
1 41105U 15074A   26198.40763157 -.00000130  00000+0  00000+0 0  9990
2 41105   6.7681  70.1492 0001011 216.2851 141.0386  1.00272043 38803
DAMPE                   
1 41173U 15078A   26198.56374965  .00000632  00000+0  23798-4 0  9991
2 41173  97.4558 204.1822 0011337 336.9535  23.1195 15.30856811589195
ORBCOMM FM110           
1 41182U 15081D   26198.44269392  .00000149  00000+0  67798-4 0  9990
2 41182  47.0002 218.3818 0003680 231.5677 128.4879 14.58919619562049
ORBCOMM FM112           
1 41184U 15081F   26198.20716236  .00000247  00000+0  88473-4 0  9992
2 41184  46.9984 128.2849 0003574 337.1225  22.9501 14.58940112563330
ORBCOMM FM113           
1 41185U 15081G   26198.18483880  .00000107  00000+0  58832-4 0  9997
2 41185  47.0001 128.7827 0002114 329.1270  30.9491 14.58883148563314
ORBCOMM FM108           
1 41187U 15081J   26198.62618776  .00000212  00000+0  81051-4 0  9998
2 41187  47.0057  38.2772 0002478 330.9581  29.1166 14.58912397564521
ORBCOMM FM117           
1 41188U 15081K   26198.59194349  .00000198  00000+0  78160-4 0  9990
2 41188  47.0020  37.0656 0002909 339.1196  20.9571 14.58899370564560
ORBCOMM FM116           
1 41189U 15081L   26198.50358276  .00000126  00000+0  62897-4 0  9994
2 41189  47.0016 127.2726 0001617 235.7302 124.3431 14.58907713563363
ZIYUAN 3-02 (ZY 3-02)   
1 41556U 16033A   26198.64308037  .00002545  00000+0  11607-3 0  9994
2 41556  97.3824 273.8321 0014351 176.4040 183.7302 15.21447873562614
CARTOSAT-2C             
1 41599U 16040A   26198.62156847  .00003057  00000+0  14805-3 0  9999
2 41599  97.4465 258.1779 0009371  37.7415 322.4475 15.19277611558332
LAPAN-A3                
1 41603U 16040E   26198.60481242  .00001632  00000+0  53027-4 0  9990
2 41603  97.1506 193.7571 0008254 265.5025  94.5275 15.33286199559470
GAOFEN-3                
1 41727U 16049A   26198.61026900 -.00000082  00000+0 -11691-4 0  9994
2 41727  98.4012 205.9376 0001767  82.5761 277.5629 14.42218609523037
CAS-2T & KS-1Q          
1 41847U 16066G   26198.15953041  .00000472  00000+0  74643-4 0  9997
2 41847  98.3813 273.5527 0342143  38.8094 323.7141 14.44772533509126
YUNHAI-1 01             
1 41857U 16068A   26198.61804095  .00000183  00000+0  83254-4 0  9992
2 41857  98.5844 209.3428 0003029 340.8320  19.2750 14.32723527506187
RESOURCESAT-2A          
1 41877U 16074A   26198.61676576  .00000435  00000+0  21842-3 0  9996
2 41877  98.7520 271.8709 0002288  22.5020 337.6257 14.21610237498624
TANSAT                  
1 41898U 16081A   26198.60957578  .00000094  00000+0  30051-4 0  9994
2 41898  98.5369 199.7681 0019561 212.3439 147.6562 14.59972179509064
